IRIDIUM 150             
1 43257U 18030J   25244.51577986 -.00000025  00000+0 -16157-4 0  9990
2 43257  86.3933  51.1271 0002256  93.5034 266.6420 14.34217409388786
IRIDIUM 143             
1 43258U 18030K   25244.56653186  .00000181  00000+0  57619-4 0  9992
2 43258  86.3937  51.1871 0002576  92.7551 267.3939 14.34218205388729
IRIDIUM 161             
1 43478U 18047C   25244.40606284  .00000739  00000+0  21369-3 0  9995
2 43478  86.4514 209.0838 0002061  85.8071 274.3366 14.43283720383485
IRIDIUM 152             
1 43479U 18047D   25244.39970089  .00000230  00000+0  75082-4 0  9999
2 43479  86.3989 208.9473 0002121  89.4322 270.7117 14.34217810381096
IRIDIUM 147             
1 43480U 18047E   25244.40604461  .00000031  00000+0  41027-5 0  9993
2 43480  86.3989 208.9448 0002196  83.0210 277.1235 14.34217688381093
IRIDIUM 110             
1 43481U 18047F   25244.41238600  .00000027  00000+0  26226-5 0  9992
2 43481  86.3992 209.0263 0001776  81.7557 278.3840 14.34217496381088
IRIDIUM 162             
1 43482U 18047G   25244.39977279  .00000734  00000+0  21209-3 0  9991
2 43482  86.4513 208.9810 0001979  91.0384 269.1043 14.43281195383477
IRIDIUM 160             
1 43569U 18061A   25244.35822087  .00000436  00000+0  14852-3 0  9990
2 43569  86.4041 177.4862 0002060  80.8473 279.2956 14.34218227371976
